NORAD_CAT_ID,OBJECT_NAME,OBJECT_TYPE,EPOCH,MEAN_MOTION,ECCENTRICITY,INCLINATION,RA_OF_ASC_NODE,ARG_OF_PERICENTER,MEAN_ANOMALY,BSTAR,MEAN_MOTION_DOT,MEAN_MOTION_DDOT,TLE_LINE0,TLE_LINE1,TLE_LINE2,SEMIMAJOR_AXIS,PERIOD,APOGEE,PERIGEE,DECAYED
54200.0,STARLINK-5250,PAYLOAD,2023-01-08 18:48:24,15.49893764,0.0001888,53.2147,145.4008,37.6897,322.4245,-6.9026e-05,-4.369e-05,0.0,0 STARLINK-5250,1 54200U 22141AV  23008.78361704 -.00004369  00000-0 -69026-4 0  9991,2 54200  53.2147 145.4008 0001888  37.6897 322.4245 15.49893764 11697,6795.174,92.91,418.321,415.756,0.0
54200.0,STARLINK-5250,PAYLOAD,2023-01-09 14:55:58,15.49226196,0.0002327,53.2154,141.3974,67.8993,292.2263,-0.0028133,-0.00153448,0.0,0 STARLINK-5250,1 54200U 22141AV  23009.62220663 -.00153448  00000-0 -28133-2 0  9998,2 54200  53.2154 141.3974 0002327  67.8993 292.2263 15.49226196 11821,6797.125,92.95,420.572,417.409,0.0
54200.0,STARLINK-5250,PAYLOAD,2023-01-09 16:29:26,15.4876423,0.0002191,53.2161,141.0909,334.4469,25.6432,-0.0042141,-0.00223924,0.0,0 STARLINK-5250,1 54200U 22141AV  23009.68711356 -.00223924  00000-0 -42141-2 0  9990,2 54200  53.2161 141.0909 0002191 334.4469  25.6432 15.48764230 11836,6798.477,92.977,421.832,418.852,0.0
54200.0,STARLINK-5250,PAYLOAD,2023-01-10 06:00:00,15.46587517,0.0001659,53.2176,138.4073,37.5419,220.8826,-0.024736,-0.01144457,0.0,0 STARLINK-5250,1 54200U 22141AV  23010.25001157 -.01144457  00000-0 -24736-1 0  9999,2 54200  53.2176 138.4073 0001659  37.5419 220.8826 15.46587517 11923,6804.854,93.108,427.848,425.591,0.0
54200.0,STARLINK-5250,PAYLOAD,2023-01-10 14:00:01,15.45773271,0.0001678,53.2173,136.8238,33.0963,281.7802,-0.025412,-0.01143137,0.0,0 STARLINK-5250,1 54200U 22141AV  23010.58334491 -.01143137  00000-0 -25412-1 0  9991,2 54200  53.2173 136.8238 0001678  33.0963 281.7802 15.45773271  1305,6807.2440000000015,93.157,430.251,427.967,0.0
54200.0,STARLINK-5250,PAYLOAD,2023-01-10 22:00:00,15.44973362,0.0001594,53.2166,135.2425,37.713,332.6316,-0.026621,-0.01163064,0.0,0 STARLINK-5250,1 54200U 22141AV  23010.91667824 -.01163064  00000-0 -26621-1 0  9991,2 54200  53.2166 135.2425 0001594  37.7130 332.6316 15.44973362  1300,6809.593000000002,93.205,432.544,430.3730000000001,0.0
54200.0,STARLINK-5250,PAYLOAD,2023-01-11 06:00:02,15.44145284,0.0001796,53.2176,133.6603,32.556999999999995,32.3566,-0.026882,-0.01143465,0.0,0 STARLINK-5250,1 54200U 22141AV  23011.25002315 -.01143465  00000-0 -26882-1 0  9999,2 54200  53.2176 133.6603 0001796  32.5570  32.3566 15.44145284 12077,6812.028,93.255,435.116,432.669,0.0
54200.0,STARLINK-5250,PAYLOAD,2023-01-11 14:00:01,15.43332796,0.0001554,53.2174,132.0826,51.1212,67.2457,-0.02766,-0.01144283,0.0,0 STARLINK-5250,1 54200U 22141AV  23011.58334491 -.01144283  00000-0 -27660-1 0  9992,2 54200  53.2174 132.0826 0001554  51.1212  67.2457 15.43332796  1302,6814.4180000000015,93.305,437.342,435.224,0.0
54200.0,STARLINK-5250,PAYLOAD,2023-01-11 22:00:00,15.42519857,0.000153,53.2172,130.5068,51.8485,119.0588,-0.028459,-0.01145252,0.0,0 STARLINK-5250,1 54200U 22141AV  23011.91667824 -.01145252  00000-0 -28459-1 0  9992,2 54200  53.2172 130.5068 0001530  51.8485 119.0588 15.42519857  1309,6816.812,93.354,439.72,437.634,0.0
54200.0,STARLINK-5250,PAYLOAD,2023-01-12 06:00:02,15.41703684,0.0001423,53.2173,128.9307,59.5833,162.9537,-0.029173,-0.01142375,0.0,0 STARLINK-5250,1 54200U 22141AV  23012.25002315 -.01142375  00000-0 -29173-1 0  9995,2 54200  53.2173 128.9307 0001423  59.5833 162.9537 15.41703684 12226,6819.218000000002,93.403,442.05300000000005,440.11300000000006,0.0
54200.0,STARLINK-5250,PAYLOAD,2023-01-12 22:00:00,15.40079788,0.0001551999999999,53.2171,125.7892,38.522,284.1407,-0.030926,-0.01146688,0.0,0 STARLINK-5250,1 54200U 22141AV  23012.91667824 -.01146688  00000-0 -30926-1 0  9999,2 54200  53.2171 125.7892 0001552  38.5220 284.1407 15.40079788  1308,6824.011,93.502,446.935,444.817,0.0
54200.0,STARLINK-5250,PAYLOAD,2023-01-13 00:00:00,15.39874455,0.0001693,53.2172,125.396,37.3655,27.5477,-0.031056,-0.01143976,0.0,0 STARLINK-5250,1 54200U 22141AV  23013.00001157 -.01143976  00000-0 -31056-1 0  9993,2 54200  53.2172 125.3960 0001693  37.3655  27.5477 15.39874455 12340,6824.616999999998,93.514,447.638,445.327,0.0
54200.0,STARLINK-5250,PAYLOAD,2023-01-13 14:00:01,15.3845219,0.0001181,53.2174,122.6536,83.1855,335.7585,-0.032615,-0.01145944,0.0,0 STARLINK-5250,1 54200U 22141AV  23013.58334491 -.01145944  00000-0 -32615-1 0  9995,2 54200  53.2174 122.6536 0001181  83.1855 335.7585 15.38452190  1309,6828.823,93.601,451.494,449.881,0.0
54200.0,STARLINK-5250,PAYLOAD,2023-01-13 20:00:01,15.37776517,0.0001776999999999,53.2183,121.4797,40.0789,323.965,0.0012073,0.00045346,0.0,0 STARLINK-5250,1 54200U 22141AV  23013.83334491  .00045346  00000-0  12073-2 0  9992,2 54200  53.2183 121.4797 0001777  40.0789 323.9650 15.37776517 12477,6830.823,93.642,453.902,451.474,0.0
54200.0,STARLINK-5250,PAYLOAD,2023-01-14 06:00:00,15.36820034,0.0001286,53.2146,119.5268,82.5187,68.8301,-0.033873,-0.01129824,0.0,0 STARLINK-5250,1 54200U 22141AV  23014.25001157 -.01129824  00000-0 -33873-1 0  9996,2 54200  53.2146 119.5268 0001286  82.5187  68.8301 15.36820034 12533,6833.656999999999,93.7,456.401,454.643,0.0
54200.0,STARLINK-5250,PAYLOAD,2023-01-14 14:00:01,15.35799111,0.0001895,53.2166,117.9657,33.8302,162.2281,-0.00075779,-0.0002706,0.0,0 STARLINK-5250,1 54200U 22141AV  23014.58334491 -.00027060  00000-0 -75779-3 0  9993,2 54200  53.2166 117.9657 0001895  33.8302 162.2281 15.35799111 12584,6836.685,93.762,459.845,457.254,0.0
54200.0,STARLINK-5250,PAYLOAD,2023-01-14 22:00:00,15.35217038,0.0001182,53.2145,116.4077,83.6481,156.1539,-0.037557,-0.01184049,0.0,0 STARLINK-5250,1 54200U 22141AV  23014.91667824 -.01184049  00000-0 -37557-1 0  9991,2 54200  53.2145 116.4077 0001182  83.6481 156.1539 15.35217038 12638,6838.4130000000005,93.798,461.086,459.47,0.0
54200.0,STARLINK-5250,PAYLOAD,2023-01-15 14:00:01,15.33543475,0.0001144,53.2147,113.2959,84.4112,239.9534,-0.036858,-0.01108322,0.0,0 STARLINK-5250,1 54200U 22141AV  23015.58334491 -.01108322  00000-0 -36858-1 0  9999,2 54200  53.2147 113.2959 0001144  84.4112 239.9534 15.33543475 12744,6843.387,93.9,466.035,464.469,0.0
54200.0,STARLINK-5250,PAYLOAD,2023-01-15 22:00:01,15.32774968,0.0001041,53.2145,111.7416,80.4784,284.7438,-0.040562,-0.01182908,0.0,0 STARLINK-5250,1 54200U 22141AV  23015.91668981 -.01182908  00000-0 -40562-1 0  9999,2 54200  53.2145 111.7416 0001041  80.4784 284.7438 15.32774968  1303,6845.674,93.947,468.252,466.827,0.0
54200.0,STARLINK-5250,PAYLOAD,2023-01-16 06:00:00,15.31947537,0.0001104,53.2146,110.1893,85.616,319.3703,-0.040113,-0.01143398,0.0,0 STARLINK-5250,1 54200U 22141AV  23016.25001157 -.01143398  00000-0 -40113-1 0  9995,2 54200  53.2146 110.1893 0001104  85.6160 319.3703 15.31947537 12845,6848.139,93.998,470.76,469.2480000000001,0.0
54200.0,STARLINK-5250,PAYLOAD,2023-01-16 14:00:01,15.31100726,0.0001264,53.2146,108.6417,72.171,11.68,-0.039638,-0.01103852,0.0,0 STARLINK-5250,1 54200U 22141AV  23016.58334491 -.01103852  00000-0 -39638-1 0  9992,2 54200  53.2146 108.6417 0001264  72.1710  11.6800 15.31100726  1308,6850.664000000001,94.05,473.395,471.663,0.0
54200.0,STARLINK-5250,PAYLOAD,2023-01-16 22:00:00,15.30326537,0.0001199,53.2143,107.0931,73.457,48.2568,-0.0433189999999999,-0.0117091,0.0,0 STARLINK-5250,1 54200U 22141AV  23016.91667824 -.01170910  00000-0 -43319-1 0  9998,2 54200  53.2143 107.0931 0001199  73.4570  48.2568 15.30326537  1300,6852.974,94.098,475.661,474.018,0.0
54200.0,STARLINK-5250,PAYLOAD,2023-01-17 14:00:01,15.28651712,0.0001291,53.2173,104.0028,89.8378,104.6636,-0.04135,-0.01070089,0.0,0 STARLINK-5250,1 54200U 22141AV  23017.58334491 -.01070089  00000-0 -41350-1 0  9992,2 54200  53.2173 104.0028 0001291  89.8378 104.6636 15.28651712  1303,6857.979,94.201,480.729,478.959,0.0
54200.0,STARLINK-5250,PAYLOAD,2023-01-17 22:00:00,15.27880927,0.0001242999999999,53.2142,102.462,80.3732,149.0949,-0.046437,-0.01180123,0.0,0 STARLINK-5250,1 54200U 22141AV  23017.91667824 -.01180123  00000-0 -46437-1 0  9990,2 54200  53.2142 102.4620 0001243  80.3732 149.0949 15.27880927 13096,6860.285,94.248,483.003,481.297,0.0
54200.0,STARLINK-5250,PAYLOAD,2023-01-18 14:00:01,15.26211512,0.0001237,53.2142,99.3858,79.1673,217.2564,-0.045396,-0.01088484,0.0,0 STARLINK-5250,1 54200U 22141AV  23018.58334491 -.01088484  00000-0 -45396-1 0  9995,2 54200  53.2142  99.3858 0001237  79.1673 217.2564 15.26211512  1305,6865.286999999999,94.351,488.001,486.30300000000005,0.0
54200.0,STARLINK-5250,PAYLOAD,2023-01-18 22:00:00,15.25434429,0.0001157,53.2139,97.8486,80.5562,247.866,-0.049655,-0.01171903,0.0,0 STARLINK-5250,1 54200U 22141AV  23018.91667824 -.01171903  00000-0 -49655-1 0  9992,2 54200  53.2139  97.8486 0001157  80.5562 247.8660 15.25434429  1304,6867.618,94.399,490.278,488.689,0.0
54200.0,STARLINK-5250,PAYLOAD,2023-01-19 06:00:00,15.24634177,0.000113,53.2142,96.3144,87.1604,272.2806,-0.051208,-0.01179105,0.0,0 STARLINK-5250,1 54200U 22141AV  23019.25001157 -.01179105  00000-0 -51208-1 0  9990,2 54200  53.2142  96.3144 0001130  87.1604 272.2806 15.24634177 13302,6870.021,94.449,492.662,491.11,0.0
54200.0,STARLINK-5250,PAYLOAD,2023-01-19 14:00:01,15.23774547,0.0001171999999999,53.2139,94.784,70.8491,318.6568,-0.049094,-0.01093203,0.0,0 STARLINK-5250,1 54200U 22141AV  23019.58334491 -.01093203  00000-0 -49094-1 0  9990,2 54200  53.2139  94.7840 0001172  70.8491 318.6568 15.23774547  1304,6872.605,94.502,495.275,493.664,0.0
54200.0,STARLINK-5250,PAYLOAD,2023-01-20 14:00:01,15.2133111,0.0001345,53.2134,90.1991,70.2815,43.5101,-0.0524679999999999,-0.01087004,0.0,0 STARLINK-5250,1 54200U 22141AV  23020.58334491 -.01087004  00000-0 -52468-1 0  9993,2 54200  53.2134  90.1991 0001345  70.2815  43.5101 15.21331110 13507,6879.962,94.654,502.752,500.901,0.0
